[{"OBJECT_NAME":"ONEWEB-0720","OBJECT_ID":"2023-029AR","EPOCH":"2025-11-29T13:46:09.221376","MEAN_MOTION":13.19723691,"ECCENTRICITY":0.0002149,"INCLINATION":87.9193,"RA_OF_ASC_NODE":344.7069,"ARG_OF_PERICENTER":87.5702,"MEAN_ANOMALY":272.5677,"EPHEMERIS_TYPE":0,"CLASSIFICATION_TYPE":"U","NORAD_CAT_ID":55835,"ELEMENT_SET_NO":999,"REV_AT_EPOCH":13251,"BSTAR":0.00011421,"MEAN_MOTION_DOT":5.9e-7,"MEAN_MOTION_DDOT":0},{"OBJECT_NAME":"ONEWEB-0537","OBJECT_ID":"2023-043A","EPOCH":"2025-11-29T13:12:50.607936","MEAN_MOTION":13.16593412,"ECCENTRICITY":0.0001652,"INCLINATION":87.9037,"RA_OF_ASC_NODE":268.5237,"ARG_OF_PERICENTER":71.7917,"MEAN_ANOMALY":288.3393,"EPHEMERIS_TYPE":0,"CLASSIFICATION_TYPE":"U","NORAD_CAT_ID":56046,"ELEMENT_SET_NO":999,"REV_AT_EPOCH":13269,"BSTAR":-4.7513e-5,"MEAN_MOTION_DOT":-5.0e-8,"MEAN_MOTION_DDOT":0},{"OBJECT_NAME":"ONEWEB-0538","OBJECT_ID":"2023-043B","EPOCH":"2025-11-29T18:32:01.773600","MEAN_MOTION":13.16594008,"ECCENTRICITY":0.0001898,"INCLINATION":87.9035,"RA_OF_ASC_NODE":268.4844,"ARG_OF_PERICENTER":67.3126,"MEAN_ANOMALY":292.8205,"EPHEMERIS_TYPE":0,"CLASSIFICATION_TYPE":"U","NORAD_CAT_ID":56047,"ELEMENT_SET_NO":999,"REV_AT_EPOCH":13273,"BSTAR":-0.00015307,"MEAN_MOTION_DOT":-4.6e-7,"MEAN_MOTION_DDOT":0},{"OBJECT_NAME":"ONEWEB-0546","OBJECT_ID":"2023-043C","EPOCH":"2025-11-29T20:03:14.404032","MEAN_MOTION":13.16595365,"ECCENTRICITY":0.0001174,"INCLINATION":87.9047,"RA_OF_ASC_NODE":268.4622,"ARG_OF_PERICENTER":65.6452,"MEAN_ANOMALY":294.4801,"EPHEMERIS_TYPE":0,"CLASSIFICATION_TYPE":"U","NORAD_CAT_ID":56048,"ELEMENT_SET_NO":999,"REV_AT_EPOCH":13273,"BSTAR":-0.00011111,"MEAN_MOTION_DOT":-3.0e-7,"MEAN_MOTION_DDOT":0},{"OBJECT_NAME":"ONEWEB-0547","OBJECT_ID":"2023-043D","EPOCH":"2025-11-29T13:28:57.010944","MEAN_MOTION":13.21823997,"ECCENTRICITY":0.0002002,"INCLINATION":87.9205,"RA_OF_ASC_NODE":283.79,"ARG_OF_PERICENTER":77.1626,"MEAN_ANOMALY":282.9732,"EPHEMERIS_TYPE":0,"CLASSIFICATION_TYPE":"U","NORAD_CAT_ID":56049,"ELEMENT_SET_NO":999,"REV_AT_EPOCH":13185,"BSTAR":0.00026076,"MEAN_MOTION_DOT":1.21e-6,"MEAN_MOTION_DDOT":0},{"OBJECT_NAME":"ONEWEB-0548","OBJECT_ID":"2023-043E","EPOCH":"2025-11-29T06:03:03.060864","MEAN_MOTION":13.16593588,"ECCENTRICITY":0.00018984,"INCLINATION":87.9026,"RA_OF_ASC_NODE":268.5871,"ARG_OF_PERICENTER":91.8098,"MEAN_ANOMALY":268.3251,"EPHEMERIS_TYPE":0,"CLASSIFICATION_TYPE":"U","NORAD_CAT_ID":56050,"ELEMENT_SET_NO":999,"REV_AT_EPOCH":13265,"BSTAR":-0.00050089757,"MEAN_MOTION_DOT":-1.79e-6,"MEAN_MOTION_DDOT":0},{"OBJECT_NAME":"ONEWEB-0549","OBJECT_ID":"2023-043F","EPOCH":"2025-11-29T15:07:17.376672","MEAN_MOTION":13.2182412,"ECCENTRICITY":0.0002068,"INCLINATION":87.9202,"RA_OF_ASC_NODE":283.7909,"ARG_OF_PERICENTER":73.8199,"MEAN_ANOMALY":286.3162,"EPHEMERIS_TYPE":0,"CLASSIFICATION_TYPE":"U","NORAD_CAT_ID":56051,"ELEMENT_SET_NO":999,"REV_AT_EPOCH":13186,"BSTAR":5.6005e-5,"MEAN_MOTION_DOT":3.6e-7,"MEAN_MOTION_DDOT":0},{"OBJECT_NAME":"ONEWEB-0550","OBJECT_ID":"2023-043G","EPOCH":"2025-11-29T20:15:20.577888","MEAN_MOTION":13.2182385,"ECCENTRICITY":0.0001804,"INCLINATION":87.9206,"RA_OF_ASC_NODE":283.7429,"ARG_OF_PERICENTER":84.6699,"MEAN_ANOMALY":275.4641,"EPHEMERIS_TYPE":0,"CLASSIFICATION_TYPE":"U","NORAD_CAT_ID":56052,"ELEMENT_SET_NO":999,"REV_AT_EPOCH":13189,"BSTAR":-8.823e-5,"MEAN_MOTION_DOT":-2.3e-7,"MEAN_MOTION_DDOT":0},{"OBJECT_NAME":"ONEWEB-0551","OBJECT_ID":"2023-043H","EPOCH":"2025-11-29T19:24:56.000736","MEAN_MOTION":13.15547835,"ECCENTRICITY":0.0002049,"INCLINATION":87.8977,"RA_OF_ASC_NODE":299.0174,"ARG_OF_PERICENTER":79.9176,"MEAN_ANOMALY":280.2186,"EPHEMERIS_TYPE":0,"CLASSIFICATION_TYPE":"U","NORAD_CAT_ID":56053,"ELEMENT_SET_NO":999,"REV_AT_EPOCH":13018,"BSTAR":0.00020615,"MEAN_MOTION_DOT":9.0e-7,"MEAN_MOTION_DDOT":0},{"OBJECT_NAME":"ONEWEB-0552","OBJECT_ID":"2023-043J","EPOCH":"2025-11-29T20:08:14.676864","MEAN_MOTION":13.2182484,"ECCENTRICITY":0.0002124,"INCLINATION":87.9205,"RA_OF_ASC_NODE":283.7527,"ARG_OF_PERICENTER":79.9638,"MEAN_ANOMALY":280.1736,"EPHEMERIS_TYPE":0,"CLASSIFICATION_TYPE":"U","NORAD_CAT_ID":56054,"ELEMENT_SET_NO":999,"REV_AT_EPOCH":13189,"BSTAR":9.3226e-6,"MEAN_MOTION_DOT":1.7e-7,"MEAN_MOTION_DDOT":0},{"OBJECT_NAME":"ONEWEB-0553","OBJECT_ID":"2023-043K","EPOCH":"2025-11-29T20:12:20.300832","MEAN_MOTION":13.1659464,"ECCENTRICITY":0.0001454,"INCLINATION":87.9036,"RA_OF_ASC_NODE":268.4695,"ARG_OF_PERICENTER":76.9896,"MEAN_ANOMALY":283.1397,"EPHEMERIS_TYPE":0,"CLASSIFICATION_TYPE":"U","NORAD_CAT_ID":56055,"ELEMENT_SET_NO":999,"REV_AT_EPOCH":13274,"BSTAR":-9.0989e-5,"MEAN_MOTION_DOT":-2.2e-7,"MEAN_MOTION_DDOT":0},{"OBJECT_NAME":"ONEWEB-0554","OBJECT_ID":"2023-043L","EPOCH":"2025-11-29T19:54:06.442272","MEAN_MOTION":13.16595769,"ECCENTRICITY":0.0001777,"INCLINATION":87.9024,"RA_OF_ASC_NODE":268.4879,"ARG_OF_PERICENTER":85.5556,"MEAN_ANOMALY":274.5778,"EPHEMERIS_TYPE":0,"CLASSIFICATION_TYPE":"U","NORAD_CAT_ID":56056,"ELEMENT_SET_NO":999,"REV_AT_EPOCH":13272,"BSTAR":-4.3887e-5,"MEAN_MOTION_DOT":-4.0e-8,"MEAN_MOTION_DDOT":0},{"OBJECT_NAME":"ONEWEB-0555","OBJECT_ID":"2023-043M","EPOCH":"2025-11-29T18:59:23.276832","MEAN_MOTION":13.16592855,"ECCENTRICITY":0.0001272,"INCLINATION":87.9035,"RA_OF_ASC_NODE":268.4741,"ARG_OF_PERICENTER":74.1859,"MEAN_ANOMALY":285.9412,"EPHEMERIS_TYPE":0,"CLASSIFICATION_TYPE":"U","NORAD_CAT_ID":56057,"ELEMENT_SET_NO":999,"REV_AT_EPOCH":13272,"BSTAR":8.1391e-5,"MEAN_MOTION_DOT":4.4e-7,"MEAN_MOTION_DDOT":0},{"OBJECT_NAME":"ONEWEB-0557","OBJECT_ID":"2023-043N","EPOCH":"2025-11-29T17:30:28.327392","MEAN_MOTION":13.16595487,"ECCENTRICITY":0.0001404,"INCLINATION":87.9031,"RA_OF_ASC_NODE":268.4998,"ARG_OF_PERICENTER":122.4188,"MEAN_ANOMALY":237.7079,"EPHEMERIS_TYPE":0,"CLASSIFICATION_TYPE":"U","NORAD_CAT_ID":56058,"ELEMENT_SET_NO":999,"REV_AT_EPOCH":13271,"BSTAR":0.00023584,"MEAN_MOTION_DOT":1.03e-6,"MEAN_MOTION_DDOT":0},{"OBJECT_NAME":"ONEWEB-0558","OBJECT_ID":"2023-043P","EPOCH":"2025-11-29T19:58:44.963040","MEAN_MOTION":13.21825482,"ECCENTRICITY":0.0002226,"INCLINATION":87.9203,"RA_OF_ASC_NODE":283.7476,"ARG_OF_PERICENTER":68.3315,"MEAN_ANOMALY":291.8056,"EPHEMERIS_TYPE":0,"CLASSIFICATION_TYPE":"U","NORAD_CAT_ID":56059,"ELEMENT_SET_NO":999,"REV_AT_EPOCH":13190,"BSTAR":-2.305e-5,"MEAN_MOTION_DOT":4.0e-8,"MEAN_MOTION_DDOT":0},{"OBJECT_NAME":"ONEWEB-0559","OBJECT_ID":"2023-043Q","EPOCH":"2025-11-29T19:42:10.867968","MEAN_MOTION":13.21826443,"ECCENTRICITY":0.0002172,"INCLINATION":87.9206,"RA_OF_ASC_NODE":283.743,"ARG_OF_PERICENTER":79.025,"MEAN_ANOMALY":281.1128,"EPHEMERIS_TYPE":0,"CLASSIFICATION_TYPE":"U","NORAD_CAT_ID":56060,"ELEMENT_SET_NO":999,"REV_AT_EPOCH":13191,"BSTAR":4.9622e-5,"MEAN_MOTION_DOT":3.4e-7,"MEAN_MOTION_DDOT":0},{"OBJECT_NAME":"ONEWEB-0566","OBJECT_ID":"2023-043R","EPOCH":"2025-11-29T19:32:40.343712","MEAN_MOTION":13.21823299,"ECCENTRICITY":0.0002154,"INCLINATION":87.9205,"RA_OF_ASC_NODE":283.7422,"ARG_OF_PERICENTER":74.5627,"MEAN_ANOMALY":285.5744,"EPHEMERIS_TYPE":0,"CLASSIFICATION_TYPE":"U","NORAD_CAT_ID":56061,"ELEMENT_SET_NO":999,"REV_AT_EPOCH":13189,"BSTAR":0.00017391,"MEAN_MOTION_DOT":8.5e-7,"MEAN_MOTION_DDOT":0}]
