ONEWEB-0720             
1 55835U 23029AR  25333.57371784  .00000059  00000+0  11421-3 0  9995
2 55835  87.9193 344.7069 0002149  87.5702 272.5677 13.19723691132513
ONEWEB-0537             
1 56046U 23043A   25333.55058574 -.00000005  00000+0 -47513-4 0  9998
2 56046  87.9037 268.5237 0001652  71.7917 288.3393 13.16593412132698
ONEWEB-0538             
1 56047U 23043B   25333.77224275 -.00000046  00000+0 -15307-3 0  9996
2 56047  87.9035 268.4844 0001898  67.3126 292.8205 13.16594008132734
ONEWEB-0546             
1 56048U 23043C   25333.83558338 -.00000030  00000+0 -11111-3 0  9996
2 56048  87.9047 268.4622 0001174  65.6452 294.4801 13.16595365132739
ONEWEB-0547             
1 56049U 23043D   25333.56177096  .00000121  00000+0  26076-3 0  9990
2 56049  87.9205 283.7900 0002002  77.1626 282.9732 13.21823997131855
ONEWEB-0548             
1 56050U 23043E   25333.25211876 -.00000179  00000+0 -50090-3 0  9991
2 56050  87.9026 268.5871 0001898  91.8098 268.3251 13.16593588132651
ONEWEB-0549             
1 56051U 23043F   25333.63006223  .00000036  00000+0  56005-4 0  9995
2 56051  87.9202 283.7909 0002068  73.8199 286.3162 13.21824120131869
ONEWEB-0550             
1 56052U 23043G   25333.84398817 -.00000023  00000+0 -88230-4 0  9995
2 56052  87.9206 283.7429 0001804  84.6699 275.4641 13.21823850131896
ONEWEB-0551             
1 56053U 23043H   25333.80898149  .00000090  00000+0  20615-3 0  9999
2 56053  87.8977 299.0174 0002049  79.9176 280.2186 13.15547835130185
ONEWEB-0552             
1 56054U 23043J   25333.83905876  .00000017  00000+0  93226-5 0  9998
2 56054  87.9205 283.7527 0002124  79.9638 280.1736 13.21824840131890
ONEWEB-0553             
1 56055U 23043K   25333.84190163 -.00000022  00000+0 -90989-4 0  9995
2 56055  87.9036 268.4695 0001454  76.9896 283.1397 13.16594640132744
ONEWEB-0554             
1 56056U 23043L   25333.82924123 -.00000004  00000+0 -43887-4 0  9990
2 56056  87.9024 268.4879 0001777  85.5556 274.5778 13.16595769132721
ONEWEB-0555             
1 56057U 23043M   25333.79124163  .00000044  00000+0  81391-4 0  9997
2 56057  87.9035 268.4741 0001272  74.1859 285.9412 13.16592855132726
ONEWEB-0557             
1 56058U 23043N   25333.72949453  .00000103  00000+0  23584-3 0  9993
2 56058  87.9031 268.4998 0001404 122.4188 237.7079 13.16595487132713
ONEWEB-0558             
1 56059U 23043P   25333.83246485  .00000004  00000+0 -23050-4 0  9991
2 56059  87.9203 283.7476 0002226  68.3315 291.8056 13.21825482131902
ONEWEB-0559             
1 56060U 23043Q   25333.82095912  .00000034  00000+0  49622-4 0  9994
2 56060  87.9206 283.7430 0002172  79.0250 281.1128 13.21826443131915
ONEWEB-0566             
1 56061U 23043R   25333.81435583  .00000085  00000+0  17391-3 0  9999
2 56061  87.9205 283.7422 0002154  74.5627 285.5744 13.21823299131899
